{"type": "FeatureCollection", "features": [ {"type": "Feature", "properties": {"norad_id": 31303, "name": "FENGYUN 1C DEB", "group": "fengyun-1c-debris", "lat": -38.874556679265964, "lon": 21.414324185771413, "alt_km": 870.4031391405933, "timestamp": "2025-12-24T11:33:00.298610+00:00", "meta": {"OBJECT_NAME": "FENGYUN 1C DEB", "OBJECT_ID": "1999-025BPM", "EPOCH": "2025-12-23T11:54:40.017600", "MEAN_MOTION": 14.11029297, "ECCENTRICITY": 0.00119942, "INCLINATION": 98.7039, "RA_OF_ASC_NODE": 13.3661, "ARG_OF_PERICENTER": 123.4196, "MEAN_ANOMALY": 236.8125, "EPHEMERIS_TYPE": 0, "CLASSIFICATION_TYPE": "U", "NORAD_CAT_ID": 31303, "ELEMENT_SET_NO": 999, "REV_AT_EPOCH": 96470, "BSTAR": 0.00010147774, "MEAN_MOTION_DOT": 1.4e-06, "MEAN_MOTION_DDOT": 0}, "tle": {"line1": "1 31303U 99025BPM 25357.49629650  .00000140  00000+0  10148-3 0  9999", "line2": "2 31303  98.7039  13.3661 0011994 123.4196 236.8125 14.11029297964707"}}, "geometry": {"type": "Point", "coordinates": [21.414324185771413, -38.874556679265964]}}, {"type": "Feature", "properties": {"norad_id": 31311, "name": "FENGYUN 1C DEB", "group": "fengyun-1c-debris", "lat": 80.85944035350876, "lon": -24.392508372345404, "alt_km": 775.1434384601607, "timestamp": "2025-12-24T11:33:00.298621+00:00", "meta": {"OBJECT_NAME": "FENGYUN 1C DEB", "OBJECT_ID": "1999-025BPP", "EPOCH": "2025-12-23T05:08:41.187840", "MEAN_MOTION": 14.29829192, "ECCENTRICITY": 0.00176877, "INCLINATION": 98.8519, "RA_OF_ASC_NODE": 78.7333, "ARG_OF_PERICENTER": 55.5558, "MEAN_ANOMALY": 359.0826, "EPHEMERIS_TYPE": 0, "CLASSIFICATION_TYPE": "U", "NORAD_CAT_ID": 31311, "ELEMENT_SET_NO": 999, "REV_AT_EPOCH": 96371, "BSTAR": 0.0017134578, "MEAN_MOTION_DOT": 4.369e-05, "MEAN_MOTION_DDOT": 0}, "tle": {"line1": "1 31311U 99025BPP 25357.21436560  .00004369  00000+0  17135-2 0  9993", "line2": "2 31311  98.8519  78.7333 0017687  55.5558 359.0826 14.29829192963710"}}, "geometry": {"type": "Point", "coordinates": [-24.392508372345404, 80.85944035350876]}}, {"type": "Feature", "properties": {"norad_id": 31312, "name": "FENGYUN 1C DEB", "group": "fengyun-1c-debris", "lat": 61.788055224026444, "lon": -179.2982039691525, "alt_km": 881.7963809642679, "timestamp": "2025-12-24T11:33:00.298631+00:00", "meta": {"OBJECT_NAME": "FENGYUN 1C DEB", "OBJECT_ID": "1999-025BPQ", "EPOCH": "2025-12-15T05:56:52.525824", "MEAN_MOTION": 14.00925702, "ECCENTRICITY": 0.00580012, "INCLINATION": 98.8604, "RA_OF_ASC_NODE": 334.8421, "ARG_OF_PERICENTER": 229.1743, "MEAN_ANOMALY": 146.4845, "EPHEMERIS_TYPE": 0, "CLASSIFICATION_TYPE": "U", "NORAD_CAT_ID": 31312, "ELEMENT_SET_NO": 999, "REV_AT_EPOCH": 95181, "BSTAR": 0.00060391584, "MEAN_MOTION_DOT": 8.73e-06, "MEAN_MOTION_DDOT": 0}, "tle": {"line1": "1 31312U 99025BPQ 25349.24783016  .00000873  00000+0  60392-3 0  9999", "line2": "2 31312  98.8604 334.8421 0058001 229.1743 146.4845 14.00925702951810"}}, "geometry": {"type": "Point", "coordinates": [-179.2982039691525, 61.788055224026444]}}, {"type": "Feature", "properties": {"norad_id": 31313, "name": "FENGYUN 1C DEB", "group": "fengyun-1c-debris", "lat": -15.993132741035959, "lon": -94.76344614326239, "alt_km": 853.5111302957712, "timestamp": "2025-12-24T11:33:00.298642+00:00", "meta": {"OBJECT_NAME": "FENGYUN 1C DEB", "OBJECT_ID": "1999-025BPR", "EPOCH": "2025-12-23T11:59:22.013376", "MEAN_MOTION": 14.22287318, "ECCENTRICITY": 0.00451533, "INCLINATION": 99.0155, "RA_OF_ASC_NODE": 261.625, "ARG_OF_PERICENTER": 150.246, "MEAN_ANOMALY": 210.1299, "EPHEMERIS_TYPE": 0, "CLASSIFICATION_TYPE": "U", "NORAD_CAT_ID": 31313, "ELEMENT_SET_NO": 999, "REV_AT_EPOCH": 97215, "BSTAR": 0.00026650765, "MEAN_MOTION_DOT": 5.52e-06, "MEAN_MOTION_DDOT": 0}, "tle": {"line1": "1 31313U 99025BPR 25357.49956034  .00000552  00000+0  26651-3 0  9992", "line2": "2 31313  99.0155 261.6250 0045153 150.2460 210.1299 14.22287318972156"}}, "geometry": {"type": "Point", "coordinates": [-94.76344614326239, -15.993132741035959]}}, {"type": "Feature", "properties": {"norad_id": 31314, "name": "FENGYUN 1C DEB", "group": "fengyun-1c-debris", "lat": 21.018958217094248, "lon": -11.254284022029223, "alt_km": 845.2734820264068, "timestamp": "2025-12-24T11:33:00.298653+00:00", "meta": {"OBJECT_NAME": "FENGYUN 1C DEB", "OBJECT_ID": "1999-025BPS", "EPOCH": "2025-12-23T18:21:29.542464", "MEAN_MOTION": 14.04935458, "ECCENTRICITY": 0.00782515, "INCLINATION": 98.8224, "RA_OF_ASC_NODE": 351.4704, "ARG_OF_PERICENTER": 326.4651, "MEAN_ANOMALY": 33.1576, "EPHEMERIS_TYPE": 0, "CLASSIFICATION_TYPE": "U", "NORAD_CAT_ID": 31314, "ELEMENT_SET_NO": 999, "REV_AT_EPOCH": 60969, "BSTAR": 0.00036988335, "MEAN_MOTION_DOT": 5.68e-06, "MEAN_MOTION_DDOT": 0}, "tle": {"line1": "1 31314U 99025BPS 25357.76492526  .00000568  00000+0  36988-3 0  9995", "line2": "2 31314  98.8224 351.4704 0078251 326.4651  33.1576 14.04935458609699"}}, "geometry": {"type": "Point", "coordinates": [-11.254284022029223, 21.018958217094248]}}, {"type": "Feature", "properties": {"norad_id": 31319, "name": "FENGYUN 1C DEB", "group": "fengyun-1c-debris", "lat": 78.79153927017875, "lon": 128.11957827768697, "alt_km": 875.8956160383113, "timestamp": "2025-12-24T11:33:00.298664+00:00", "meta": {"OBJECT_NAME": "FENGYUN 1C DEB", "OBJECT_ID": "1999-025BPX", "EPOCH": "2025-12-22T22:43:11.253792", "MEAN_MOTION": 13.75832622, "ECCENTRICITY": 0.01706224, "INCLINATION": 98.8312, "RA_OF_ASC_NODE": 255.0196, "ARG_OF_PERICENTER": 59.845, "MEAN_ANOMALY": 359.0356, "EPHEMERIS_TYPE": 0, "CLASSIFICATION_TYPE": "U", "NORAD_CAT_ID": 31319, "ELEMENT_SET_NO": 999, "REV_AT_EPOCH": 93828, "BSTAR": 0.00021018405, "MEAN_MOTION_DOT": 1.88e-06, "MEAN_MOTION_DDOT": 0}, "tle": {"line1": "1 31319U 99025BPX 25356.94665803  .00000188  00000+0  21018-3 0  9995", "line2": "2 31319  98.8312 255.0196 0170622  59.8450 359.0356 13.75832622938287"}}, "geometry": {"type": "Point", "coordinates": [128.11957827768697, 78.79153927017875]}}, {"type": "Feature", "properties": {"norad_id": 31321, "name": "FENGYUN 1C DEB", "group": "fengyun-1c-debris", "lat": -11.773757271020171, "lon": -104.75603628638564, "alt_km": 835.6800798974336, "timestamp": "2025-12-24T11:33:00.298675+00:00", "meta": {"OBJECT_NAME": "FENGYUN 1C DEB", "OBJECT_ID": "1999-025BPZ", "EPOCH": "2025-12-21T11:18:43.092576", "MEAN_MOTION": 14.13827699, "ECCENTRICITY": 0.00303049, "INCLINATION": 98.7333, "RA_OF_ASC_NODE": 74.1401, "ARG_OF_PERICENTER": 153.2037, "MEAN_ANOMALY": 207.0709, "EPHEMERIS_TYPE": 0, "CLASSIFICATION_TYPE": "U", "NORAD_CAT_ID": 31321, "ELEMENT_SET_NO": 999, "REV_AT_EPOCH": 57507, "BSTAR": 0.00012257196, "MEAN_MOTION_DOT": 1.9e-06, "MEAN_MOTION_DDOT": 0}, "tle": {"line1": "1 31321U 99025BPZ 25355.47133209  .00000190  00000+0  12257-3 0  9993", "line2": "2 31321  98.7333  74.1401 0030304 153.2037 207.0709 14.13827699575072"}}, "geometry": {"type": "Point", "coordinates": [-104.75603628638564, -11.773757271020171]}}, {"type": "Feature", "properties": {"norad_id": 31322, "name": "FENGYUN 1C DEB", "group": "fengyun-1c-debris", "lat": -56.630290020180205, "lon": 74.28299693270819, "alt_km": 853.1064013124678, "timestamp": "2025-12-24T11:33:00.298685+00:00", "meta": {"OBJECT_NAME": "FENGYUN 1C DEB", "OBJECT_ID": "1999-025BQA", "EPOCH": "2025-12-22T10:55:09.812352", "MEAN_MOTION": 13.73001176, "ECCENTRICITY": 0.02380895, "INCLINATION": 98.5721, "RA_OF_ASC_NODE": 59.2277, "ARG_OF_PERICENTER": 344.2123, "MEAN_ANOMALY": 29.7428, "EPHEMERIS_TYPE": 0, "CLASSIFICATION_TYPE": "U", "NORAD_CAT_ID": 31322, "ELEMENT_SET_NO": 999, "REV_AT_EPOCH": 62409, "BSTAR": 0.00020913462, "MEAN_MOTION_DOT": 1.98e-06, "MEAN_MOTION_DDOT": 0}, "tle": {"line1": "1 31322U 99025BQA 25356.45497468  .00000198  00000+0  20913-3 0  9999", "line2": "2 31322  98.5721  59.2277 0238089 344.2123  29.7428 13.73001176624098"}}, "geometry": {"type": "Point", "coordinates": [74.28299693270819, -56.630290020180205]}}, {"type": "Feature", "properties": {"norad_id": 31323, "name": "FENGYUN 1C DEB", "group": "fengyun-1c-debris", "lat": 7.713157095359716, "lon": 36.56983076955431, "alt_km": 784.007160201867, "timestamp": "2025-12-24T11:33:00.298695+00:00", "meta": {"OBJECT_NAME": "FENGYUN 1C DEB", "OBJECT_ID": "1999-025BQB", "EPOCH": "2025-12-20T21:43:51.769056", "MEAN_MOTION": 14.27642156, "ECCENTRICITY": 0.0030892, "INCLINATION": 99.4195, "RA_OF_ASC_NODE": 34.0071, "ARG_OF_PERICENTER": 56.5612, "MEAN_ANOMALY": 303.8513, "EPHEMERIS_TYPE": 0, "CLASSIFICATION_TYPE": "U", "NORAD_CAT_ID": 31323, "ELEMENT_SET_NO": 999, "REV_AT_EPOCH": 64097, "BSTAR": 0.0010025, "MEAN_MOTION_DOT": 2.433e-05, "MEAN_MOTION_DDOT": 0}, "tle": {"line1": "1 31323U 99025BQB 25354.90546029  .00002433  00000+0  10025-2 0  9992", "line2": "2 31323  99.4195  34.0071 0030892  56.5612 303.8513 14.27642156640970"}}, "geometry": {"type": "Point", "coordinates": [36.56983076955431, 7.713157095359716]}}, {"type": "Feature", "properties": {"norad_id": 31324, "name": "FENGYUN 1C DEB", "group": "fengyun-1c-debris", "lat": -66.85833466670714, "lon": -57.70073649697891, "alt_km": 817.3839006886956, "timestamp": "2025-12-24T11:33:00.298705+00:00", "meta": {"OBJECT_NAME": "FENGYUN 1C DEB", "OBJECT_ID": "1999-025BQC", "EPOCH": "2025-12-21T14:16:42.684672", "MEAN_MOTION": 14.14700279, "ECCENTRICITY": 0.0048997, "INCLINATION": 99.1242, "RA_OF_ASC_NODE": 277.2633, "ARG_OF_PERICENTER": 278.9209, "MEAN_ANOMALY": 80.6419, "EPHEMERIS_TYPE": 0, "CLASSIFICATION_TYPE": "U", "NORAD_CAT_ID": 31324, "ELEMENT_SET_NO": 999, "REV_AT_EPOCH": 96611, "BSTAR": 0.00014071, "MEAN_MOTION_DOT": 2.27e-06, "MEAN_MOTION_DDOT": 0}, "tle": {"line1": "1 31324U 99025BQC 25355.59493848  .00000227  00000+0  14071-3 0  9994", "line2": "2 31324  99.1242 277.2633 0048997 278.9209  80.6419 14.14700279966112"}}, "geometry": {"type": "Point", "coordinates": [-57.70073649697891, -66.85833466670714]}}]}